{
    "links": {
        "self": "http://www.neowsapp.com/rest/v1/neo/3638339?api_key=iIulBulltgU6a56xZRHN4H3l9WmuAYTsLGpBGhQ2"
    },
    "id": "3638339",
    "neo_reference_id": "3638339",
    "name": "(2013 JW17)",
    "designation": "2013 JW17",
    "nasa_jpl_url": "http://ssd.jpl.nasa.gov/sbdb.cgi?sstr=3638339",
    "absolute_magnitude_h": 24.5,
    "estimated_diameter": {
        "kilometers": {
            "estimated_diameter_min": 0.0334622374,
            "estimated_diameter_max": 0.0748238376
        },
        "meters": {
            "estimated_diameter_min": 33.4622374455,
            "estimated_diameter_max": 74.8238376074
        },
        "miles": {
            "estimated_diameter_min": 0.0207924639,
            "estimated_diameter_max": 0.0464933628
        },
        "feet": {
            "estimated_diameter_min": 109.7842471007,
            "estimated_diameter_max": 245.4850393757
        }
    },
    "is_potentially_hazardous_asteroid": false,
    "close_approach_data": [
        {
            "close_approach_date": "2013-05-14",
            "close_approach_date_full": "2013-May-14 07:21",
            "epoch_date_close_approach": 1368516060000,
            "relative_velocity": {
                "kilometers_per_second": "11.7556438421",
                "kilometers_per_hour": "42320.3178315517",
                "miles_per_hour": "26296.1997103883"
            },
            "miss_distance": {
                "astronomical": "0.0880398151",
                "lunar": "34.2474880739",
                "kilometers": "13170568.814153837",
                "miles": "8183811.9727114706"
            },
            "orbiting_body": "Earth"
        }
    ],
    "orbital_data": {
        "orbit_id": "10",
        "orbit_determination_date": "2017-04-06 08:45:53",
        "first_observation_date": "2013-05-11",
        "last_observation_date": "2013-06-04",
        "data_arc_in_days": 24,
        "observations_used": 32,
        "orbit_uncertainty": "8",
        "minimum_orbit_intersection": ".0878909",
        "jupiter_tisserand_invariant": "3.103",
        "epoch_osculation": "2456425.5",
        "eccentricity": ".5792894218220355",
        "semi_major_axis": "2.597949178294224",
        "inclination": "17.24767644166259",
        "ascending_node_longitude": "230.5731220296281",
        "orbital_period": "1529.482116806692",
        "perihelion_distance": "1.092984700877131",
        "perihelion_argument": "11.21294179525527",
        "aphelion_distance": "4.102913655711317",
        "perihelion_time": "2456434.150441490536",
        "mean_anomaly": "357.9639128157348",
        "mean_motion": ".2353737883196836",
        "equinox": "J2000",
        "orbit_class": {
            "orbit_class_type": "AMO",
            "orbit_class_description": "Near-Earth asteroid orbits similar to that of 1221 Amor",
            "orbit_class_range": "1.017 AU < q (perihelion) < 1.3 AU"
        }
    },
    "is_sentry_object": false
}